NORAD_CAT_ID,OBJECT_NAME,OBJECT_TYPE,EPOCH,MEAN_MOTION,ECCENTRICITY,INCLINATION,RA_OF_ASC_NODE,ARG_OF_PERICENTER,MEAN_ANOMALY,BSTAR,MEAN_MOTION_DOT,MEAN_MOTION_DDOT,TLE_LINE0,TLE_LINE1,TLE_LINE2,SEMIMAJOR_AXIS,PERIOD,APOGEE,PERIGEE,DECAYED
56489.0,STARLINK-5923,PAYLOAD,2024-04-05 09:14:27,14.98331306,0.0002947,69.9995,77.7636,269.3446,90.7375,9.4275e-06,1.9e-07,0.0,0 STARLINK-5923,1 56489U 23064AT  24096.38504034  .00000019  00000-0  94275-5 0  9997,2 56489  69.9995  77.7636 0002947 269.3446  90.7375 14.98331306 51244,6950.189,96.107,574.102,570.006,0.0
56489.0,STARLINK-5923,PAYLOAD,2024-04-05 22:03:32,14.98328934,0.0003047,69.9999,76.4169,273.4935,86.5875,-1.0994e-07,-9.4e-07,0.0,0 STARLINK-5923,1 56489U 23064AT  24096.91912167 -.00000094  00000-0 -10994-6 0  9998,2 56489  69.9999  76.4169 0003047 273.4935  86.5875 14.98328934 50965,6950.196,96.107,574.179,569.943,0.0
56489.0,STARLINK-5923,PAYLOAD,2024-04-06 07:40:20,14.98333159,0.000294,69.9998,75.4071,272.4462,87.636,-3.3954e-05,-4.98e-06,0.0,0 STARLINK-5923,1 56489U 23064AT  24097.31967953 -.00000498  00000-0 -33954-4 0  9993,2 56489  69.9998  75.4071 0002940 272.4462  87.6360 14.98333159 51024,6950.183,96.107,574.091,570.005,0.0
56489.0,STARLINK-5923,PAYLOAD,2024-04-06 15:41:00,14.98334745,0.0002905,69.9999,74.5656,269.5577,90.5249,-0.00012045,-1.53e-05,0.0,0 STARLINK-5923,1 56489U 23064AT  24097.65348012 -.00001530  00000-0 -12045-3 0  9994,2 56489  69.9999  74.5656 0002905 269.5577  90.5249 14.98334745 51435,6950.178,96.107,574.062,570.024,0.0
56489.0,STARLINK-5923,PAYLOAD,2024-04-06 22:05:32,14.9833011,0.0002874,69.9997,73.8923,266.9912,93.0919,-4.1402e-06,-1.42e-06,0.0,0 STARLINK-5923,1 56489U 23064AT  24097.92052051 -.00000142  00000-0 -41402-5 0  9998,2 56489  69.9997  73.8923 0002874 266.9912  93.0919 14.98330110 51110,6950.193,96.107,574.055,570.06,0.0
56489.0,STARLINK-5923,PAYLOAD,2024-04-07 07:42:21,14.9833085,0.0002847,69.9997,72.8822,264.6552,95.4282,-1.225e-05,-2.39e-06,0.0,0 STARLINK-5923,1 56489U 23064AT  24098.32108007 -.00000239  00000-0 -12250-4 0  9991,2 56489  69.9997  72.8822 0002847 264.6552  95.4282 14.98330850 51178,6950.19,96.107,574.034,570.077,0.0
56489.0,STARLINK-5923,PAYLOAD,2024-04-07 15:43:01,14.98326195,0.0002946,69.9997,72.0395,271.3832,88.6989,5.6278e-05,5.78e-06,0.0,0 STARLINK-5923,1 56489U 23064AT  24098.65488148  .00000578  00000-0  56278-4 0  9996,2 56489  69.9997  72.0395 0002946 271.3832  88.6989 14.98326195 51581,6950.205,96.107,574.117,570.022,0.0
56489.0,STARLINK-5923,PAYLOAD,2024-04-08 07:44:22,14.98329538,0.0002965,69.9998,70.3563,270.2962,89.7857,1.6751e-05,1.07e-06,0.0,0 STARLINK-5923,1 56489U 23064AT  24099.32248043  .00000107  00000-0  16751-4 0  9999,2 56489  69.9998  70.3563 0002965 270.2962  89.7857 14.98329538 51325,6950.194,96.107,574.12,569.999,0.0
56489.0,STARLINK-5923,PAYLOAD,2024-04-08 15:45:02,14.98325804,0.0002836,70.0,69.5152,272.9873,87.0962,0.0001039,1.147e-05,0.0,0 STARLINK-5923,1 56489U 23064AT  24099.65628124  .00001147  00000-0  10390-3 0  9994,2 56489  70.0000  69.5152 0002836 272.9873  87.0962 14.98325804 51738,6950.206,96.107,574.042,570.1,0.0
56489.0,STARLINK-5923,PAYLOAD,2024-04-08 23:45:42,14.98330563,0.0002969,70.0,68.6736,270.4072,89.6747,1.8603e-05,1.29e-06,0.0,0 STARLINK-5923,1 56489U 23064AT  24099.99007948  .00000129  00000-0  18603-4 0  9991,2 56489  70.0000  68.6736 0002969 270.4072  89.6747 14.98330563 51420,6950.191,96.107,574.12,569.993,0.0
56489.0,STARLINK-5923,PAYLOAD,2024-04-09 07:46:22,14.98332902,0.0002955,70.0001,67.8317,269.9681,90.114,4.3136e-05,4.22e-06,0.0,0 STARLINK-5923,1 56489U 23064AT  24100.32387688  .00000422  00000-0  43136-4 0  9998,2 56489  70.0001  67.8317 0002955 269.9681  90.1140 14.98332902 51479,6950.184,96.107,574.103,569.995,0.0
56489.0,STARLINK-5923,PAYLOAD,2024-04-10 07:48:24,14.98330341,0.0002891,70.0004,65.3084,267.9031,92.1797,1.1082e-05,3.9e-07,0.0,0 STARLINK-5923,1 56489U 23064AT  24101.32527868  .00000039  00000-0  11082-4 0  9994,2 56489  70.0004  65.3084 0002891 267.9031  92.1797 14.98330341 51983,6950.192,96.107,574.066,570.048,0.0
56489.0,STARLINK-5923,PAYLOAD,2024-04-10 14:12:58,14.98309549,0.0002777,70.0004,64.6342,271.1629,88.9211,-0.00021872,-2.7e-05,0.0,0 STARLINK-5923,1 56489U 23064AT  24101.59233963 -.00002700  00000-0 -21872-3 0  9999,2 56489  70.0004  64.6342 0002777 271.1629  88.9211 14.98309549 51660,6950.256,96.108,574.051,570.191,0.0
56489.0,STARLINK-5923,PAYLOAD,2024-04-10 20:37:30,14.98310716,0.0002797,70.0003,63.9604,271.0219,89.062,-0.00023201,-2.859e-05,0.0,0 STARLINK-5923,1 56489U 23064AT  24101.85938212 -.00002859  00000-0 -23201-3 0  9990,2 56489  70.0003  63.9604 0002797 271.0219  89.0620 14.98310716 52067,6950.253,96.108,574.062,570.174,0.0
56489.0,STARLINK-5923,PAYLOAD,2024-04-10 22:13:38,14.98310047,0.0002815,70.0004,63.7922,270.3347,89.749,-0.00023251,-2.865e-05,0.0,0 STARLINK-5923,1 56489U 23064AT  24101.92614338 -.00002865  00000-0 -23251-3 0  9990,2 56489  70.0004  63.7922 0002815 270.3347  89.7490 14.98310047 51714,6950.255,96.108,574.076,570.163,0.0
56489.0,STARLINK-5923,PAYLOAD,2024-04-11 14:14:58,14.98322005,0.0003234,70.0005,62.1099,267.5889,92.4899,-5.1024e-05,-7.02e-06,0.0,0 STARLINK-5923,1 56489U 23064AT  24102.59373668 -.00000702  00000-0 -51024-4 0  9990,2 56489  70.0005  62.1099 0003234 267.5889  92.4899 14.98322005 51810,6950.218,96.108,574.33,569.835,0.0
56489.0,STARLINK-5923,PAYLOAD,2024-04-11 22:15:39,14.98320677,0.0003319,70.0006,61.2671,268.8469,91.231,3.2135e-05,2.9e-06,0.0,0 STARLINK-5923,1 56489U 23064AT  24102.92753624  .00000290  00000-0  32135-4 0  9993,2 56489  70.0006  61.2671 0003319 268.8469  91.2310 14.98320677 51862,6950.222,96.108,574.394,569.78,0.0
56489.0,STARLINK-5923,PAYLOAD,2024-04-12 04:40:10,14.98327538,0.00028,70.0009,60.5944,271.4435,88.6404,0.0001508,1.707e-05,0.0,0 STARLINK-5923,1 56489U 23064AT  24103.19457052  .00001707  00000-0  15080-3 0  9992,2 56489  70.0009  60.5944 0002800 271.4435  88.6404 14.98327538 52269,6950.201,96.107,574.012,570.119,0.0
56489.0,STARLINK-5923,PAYLOAD,2024-04-12 06:16:18,14.98332576,0.000303,70.0001,60.425,273.0778,87.0034,8.0923e-05,8.73e-06,0.0,0 STARLINK-5923,1 56489U 23064AT  24103.26132921  .00000873  00000-0  80923-4 0  9997,2 56489  70.0001  60.4250 0003030 273.0778  87.0034 14.98332576 51915,6950.185,96.107,574.156,569.944,0.0
56489.0,STARLINK-5923,PAYLOAD,2024-04-12 22:17:39,14.98329772,0.0002819,70.0008,58.7427,271.0305,89.0531,0.00031119,3.622e-05,0.0,0 STARLINK-5923,1 56489U 23064AT  24103.92892558  .00003622  00000-0  31119-3 0  9996,2 56489  70.0008  58.7427 0002819 271.0305  89.0531 14.98329772 52016,6950.194,96.107,574.018,570.099,0.0
56489.0,STARLINK-5923,PAYLOAD,2024-04-13 04:42:10,14.98338135,0.000276,70.0007,58.0693,269.3002,90.7841,0.00036245,4.235e-05,0.0,0 STARLINK-5923,1 56489U 23064AT  24104.19595825  .00004235  00000-0  36245-3 0  9999,2 56489  70.0007  58.0693 0002760 269.3002  90.7841 14.98338135 52412,6950.168,96.106,573.951,570.114,0.0
56489.0,STARLINK-5923,PAYLOAD,2024-04-13 06:18:18,14.98340019,0.0002768,70.0007,57.9009,269.6644,90.4198,0.00037481,4.383e-05,0.0,0 STARLINK-5923,1 56489U 23064AT  24104.26271628  .00004383  00000-0  37481-3 0  9996,2 56489  70.0007  57.9009 0002768 269.6644  90.4198 14.98340019 52061,6950.162,96.106,573.951,570.103,0.0
56489.0,STARLINK-5923,PAYLOAD,2024-04-14 04:44:11,14.98341092,0.0002728,70.0009,55.5438,267.6569,92.4278,3.8551e-06,-4.7e-07,0.0,0 STARLINK-5923,1 56489U 23064AT  24105.19736087 -.00000047  00000-0  38551-5 0  9999,2 56489  70.0009  55.5438 0002728 267.6569  92.4278 14.98341092 52561,6950.159,96.106,573.92,570.128,0.0
56489.0,STARLINK-5923,PAYLOAD,2024-04-14 22:21:41,14.98336887,0.000295,70.0012,53.6999,277.6971,82.3853,-0.00023282,-2.87e-05,0.0,0 STARLINK-5923,1 56489U 23064AT  24105.93172668 -.00002870  00000-0 -23282-3 0  9990,2 56489  70.0012  53.6999 0002950 277.6971  82.3853 14.98336887 52317,6950.172,96.107,574.087,569.986,0.0
56489.0,STARLINK-5923,PAYLOAD,2024-04-15 04:46:13,14.9832712,0.0002545,70.0013,53.0209,272.6642,87.4225,-0.00028768,-3.523e-05,0.0,0 STARLINK-5923,1 56489U 23064AT  24106.19877288 -.00003523  00000-0 -28768-3 0  9999,2 56489  70.0013  53.0209 0002545 272.6642  87.4225 14.98327120 52719,6950.202,96.107,573.836,570.298,0.0
56489.0,STARLINK-5923,PAYLOAD,2024-04-15 06:22:21,14.98328686,0.000255,70.0014,52.8532,270.0244,90.0623,-0.0002637,-3.238e-05,0.0,0 STARLINK-5923,1 56489U 23064AT  24106.26553114 -.00003238  00000-0 -26370-3 0  9996,2 56489  70.0014  52.8532 0002550 270.0244  90.0623 14.98328686 52363,6950.197,96.107,573.834,570.29,0.0
56489.0,STARLINK-5923,PAYLOAD,2024-04-15 20:47:33,14.98336128,0.0003194,70.0002,51.337,265.5411,94.5383,-3.4854e-05,-5.09e-06,0.0,0 STARLINK-5923,1 56489U 23064AT  24106.86635819 -.00000509  00000-0 -34854-4 0  9990,2 56489  70.0002  51.3370 0003194 265.5411  94.5383 14.98336128 52816,6950.174,96.107,574.259,569.819,0.0
56489.0,STARLINK-5923,PAYLOAD,2024-04-16 04:48:12,14.98350037,0.0002776,70.0008,50.4947,265.0113,95.0729,0.00013557,1.526e-05,0.0,0 STARLINK-5923,1 56489U 23064AT  24107.20014316  .00001526  00000-0  13557-3 0  9996,2 56489  70.0008  50.4947 0002776 265.0113  95.0729 14.98350037 52861,6950.131,96.106,573.925,570.067,0.0
56489.0,STARLINK-5923,PAYLOAD,2024-04-16 12:48:53,14.98342104,0.0002152,70.0041,49.6525,287.7611,72.3313,9.3274e-05,1.021e-05,0.0,0 STARLINK-5923,1 56489U 23064AT  24107.53394973  .00001021  00000-0  93274-4 0  9997,2 56489  70.0041  49.6525 0002152 287.7611  72.3313 14.98342104 52911,6950.155,96.106,573.516,570.525,0.0
56489.0,STARLINK-5923,PAYLOAD,2024-04-16 22:25:41,14.98332353,0.0002547,70.0017,48.645,266.2346,93.8522,0.00022411,2.582e-05,0.0,0 STARLINK-5923,1 56489U 23064AT  24107.93450726  .00002582  00000-0  22411-3 0  9997,2 56489  70.0017  48.6450 0002547 266.2346  93.8522 14.98332353 52617,6950.186,96.107,573.821,570.28,0.0
